OrganisationURI,OrganisationLabel,Site Reference,PreviouslyPartOf,SiteNameAddress,SiteplanURL,CoordinateReferenceSystem,Longitude,Latitude,Hectares,Ownership Status,Deliverable,PlanningStatus,PermissionType,PermissionDate,PlanningHistory,ProposedForPIP,MinNetDwellings,DevelopmentDescription,NonHousingDevelopment,Part2,NetDwellingsRangeFrom,NetDwellingsRangeTo,HazardousSubstances,SiteInformation,Notes,FirstAddedDate,LastUpdatedDate
http://opendatacommunities.org/doc/unitary-authority/portsmouth,Portsmouth City Council,1,,TIPNER WEST,https://www.portsmouth.gov.uk/ext/development-and-planning/planning/brownfield-land-register,ETRS89,-1.0933,50.8272,6.56,mixed ownership,yes,Not permissioned,,,,,650,Proposed for up to 650 dwelling mixed-use as part of larger development scheme for City Deal,,,,,,,Part of City Deal,2017-12-18 00:00:00,2018-12-12
http://opendatacommunities.org/doc/unitary-authority/portsmouth,Portsmouth City Council,2,,TIPNER FIRING RANGE,https://www.portsmouth.gov.uk/ext/development-and-planning/planning/brownfield-land-register,ETRS89,-1.0966,50.825,15.46,owned by a public authority,yes,Not permissioned,,,,,600,Proposed for up to 600 dwelling mixed-use as part of larger development scheme for City Deal,,,,,,,Part of City Deal,2017-12-18 00:00:00,2018-12-12
http://opendatacommunities.org/doc/unitary-authority/portsmouth,Portsmouth City Council,3,,LAND OFF AND BETWEEN M275 SOUTH OF TIPNER LAKE INCLUDING GREYHOUND STADIUM TWYFORD AVENUE,https://www.portsmouth.gov.uk/ext/development-and-planning/planning/brownfield-land-register,ETRS89,-1.0854,50.8244,11.29,owned by a public authority,yes,Permissioned,Outline planning permission,2012-03-30,http://publicaccess.portsmouth.gov.uk/online-applications/applicationDetails.do?activeTab=summary&keyVal=L7GM7TMO5G000,,600,"Outline planning permission granted for up to 600 homes, 615sqm commercial floor space and sea wall. Permission granted for Park & Ride facility.",,,,,,,,2017-12-18 00:00:00,2018-12-12
http://opendatacommunities.org/doc/unitary-authority/portsmouth,Portsmouth City Council,4,,"PORT SOLENT, HMS EXCELLENT",https://www.portsmouth.gov.uk/ext/development-and-planning/planning/brownfield-land-register,ETRS89,-1.1002,50.8399,25.34,mixed ownership,yes,Not permissioned,,,,,500,Allocated in Core Strategy (2011-2027) for approx. 500 homes. Also part of City Deal.,,,,,,,"The site has considerable contaminated land issues through industrial use of the land, landfill and land reclamation. Therefore, before any development can take place the council will need to be satisfied that an  appropriate scheme for remediation of the site is in place to deal with the historic land contamination.",2017-12-18 00:00:00,2018-12-12
http://opendatacommunities.org/doc/unitary-authority/portsmouth,Portsmouth City Council,5,,"EUROPA HOUSE, HAVANT STREET",https://www.portsmouth.gov.uk/ext/development-and-planning/planning/brownfield-land-register,ETRS89,-1.106,50.7987,0.26,unknown ownership,yes,Permissioned,Full planning permission,2015-06-18,http://publicaccess.portsmouth.gov.uk/online-applications/applicationDetails.do?activeTab=summary&keyVal=NJCF4FMOI3V00,,200,Change of use from office (Class B1) to halls of residence (Class C1) at levels 6-18 of Europa House and the annex building to form 262 study bedrooms with communal facilities,,,,,,,Subject to conditions,2017-12-18 00:00:00,2018-12-12
http://opendatacommunities.org/doc/unitary-authority/portsmouth,Portsmouth City Council,6,,TRAFALGAR WHARF,https://www.portsmouth.gov.uk/ext/development-and-planning/planning/brownfield-land-register,ETRS89,-1.1153,50.8465,3.23,not owned by a public authority,yes,Pending decision,,,http://publicaccess.portsmouth.gov.uk/online-applications/applicationDetails.do?activeTab=documents&keyVal=MSUUZTMO5G000,,160,Resolution to grant permission for 163 units. Allocated for residential development in Portsmouth City Plan 2001-2011.,,,,,,,"The site has considerable contaminated land issues. Therefore, before any development can take place the council will need to be satisfied that thorough investigation of the site has taken place and an appropriate scheme for remediation of the site is in place to deal with the historic land contamination.",2017-12-18 00:00:00,2018-12-12
http://opendatacommunities.org/doc/unitary-authority/portsmouth,Portsmouth City Council,7,,DRAYTON DAIRY,https://www.portsmouth.gov.uk/ext/development-and-planning/planning/brownfield-land-register,ETRS89,-1.0456,50.8392,2.52,owned by a public authority,yes,Permissioned,Other,2017-09-20,http://publicaccess.portsmouth.gov.uk/online-applications/applicationDetails.do?activeTab=documents&keyVal=OL60SKMOJTS00,,100,Outline application for the construction of up to 108 dwellings,,,,,,,Resolution to grant permission subject to S106.,2017-12-18 00:00:00,2018-12-12
http://opendatacommunities.org/doc/unitary-authority/portsmouth,Portsmouth City Council,8,,QINETIQ - FRASER BATTERY,https://www.portsmouth.gov.uk/ext/development-and-planning/planning/brownfield-land-register,ETRS89,-1.0341,50.7872,5.45,not owned by a public authority,yes,Not permissioned,,,,,130,Previous planning application withdrawn for 131 residential dwellings. Recent refused planning application for access road to accommodate residential development.,,,,,,,,2017-12-18 00:00:00,2018-12-12
http://opendatacommunities.org/doc/unitary-authority/portsmouth,Portsmouth City Council,9,,QUEENS HOTEL,https://www.portsmouth.gov.uk/ext/development-and-planning/planning/brownfield-land-register,ETRS89,-1.0931,50.7847,0.84,not owned by a public authority,yes,Permissioned,Full planning permission,2012-03-15,http://publicaccess.portsmouth.gov.uk/online-applications/applicationDetails.do?activeTab=documents&keyVal=LDTP2UMO02T00,,30,Construction of eight-storey building comprising 38 apartments above extended landscapes podium level and associated car parking facilities,,,,,,,Subject to conditions,2017-12-18 00:00:00,2018-12-12
http://opendatacommunities.org/doc/unitary-authority/portsmouth,Portsmouth City Council,10,,THE ROYAL BEACH HOTEL (EAST WING)  ST HELENS PARADE,https://www.portsmouth.gov.uk/ext/development-and-planning/planning/brownfield-land-register,ETRS89,-1.0759,50.7799,0.11,unknown ownership,yes,Permissioned,Full planning permission,2013-07-18,http://publicaccess.portsmouth.gov.uk/online-applications/applicationDetails.do?activeTab=documents&keyVal=KYYKV6MO04R00,,40,Conversion of east wing to form 9 maisonettes and 31 flats including construction of mansard roof to form additional floor and external alterations,,,,,,,,2017-12-18 00:00:00,2018-12-12
http://opendatacommunities.org/doc/unitary-authority/portsmouth,Portsmouth City Council,11,,140-142 KINGSTON ROAD (BINGO HALL),https://www.portsmouth.gov.uk/ext/development-and-planning/planning/brownfield-land-register,ETRS89,-1.0781,50.8102,0.07,not owned by a public authority,yes,Permissioned,Full planning permission,2018-05-30,http://publicaccess.portsmouth.gov.uk/online-applications/applicationDetails.do?activeTab=documents&keyVal=OTLPCOMOG6Y00,,10,Part demolition of former bingo hall and conversion to form retail unit (Class A1/A2) and 10 dwellinghouse; conversion/extension of outbuilding to form dwellinghouse; provision of associated refuse/ bicycle stores and car parking,,,,,,,,2017-12-18 00:00:00,2018-12-12
http://opendatacommunities.org/doc/unitary-authority/portsmouth,Portsmouth City Council,12,,GARAGES AT EXMOUTH ROAD,https://www.portsmouth.gov.uk/ext/development-and-planning/planning/brownfield-land-register,ETRS89,-1.0817,50.7862,0.11,not owned by a public authority,yes,Permissioned,Full planning permission,2018-10-17,http://publicaccess.portsmouth.gov.uk/online-applications/applicationDetails.do?activeTab=documents&keyVal=P8I92PMOFOW00,,8,Construction of 8 three-storey dwellinghouses following demolition of existing buildings,,,,,,,,2018-12-18 00:00:00,2018-12-12
http://opendatacommunities.org/doc/unitary-authority/portsmouth,Portsmouth City Council,13,,"FORMER AQUATICS CENTRE, 201 HIGHLAND ROAD AND 197 AND LAND AT REAR",https://www.portsmouth.gov.uk/ext/development-and-planning/planning/brownfield-land-register,ETRS89,-1.0617,50.7871,0.25,not owned by a public authority,yes,Permissioned,Full planning permission,2015-09-11,http://publicaccess.portsmouth.gov.uk/online-applications/applicationDetails.do?activeTab=documents&keyVal=NR2RVQMOLKU00,,7,Construction of four 3-storey houses and three 2-storey houses with associated access road and car parking after demolition of existing buildings,,,,,,,,2017-12-18 00:00:00,2018-12-12
http://opendatacommunities.org/doc/unitary-authority/portsmouth,Portsmouth City Council,14,,LAND SOUTH OF MARINA KEEP,https://www.portsmouth.gov.uk/ext/development-and-planning/planning/brownfield-land-register,ETRS89,-1.0362,50.7902,0.19,not owned by a public authority,yes,Not permissioned,,,,,15,"Site adjacent to existing marina, previously promoted for residential development.",,,,,,,"Promoted through SHLAA call for sites. The site has considerable contaminated land issues. The site has considerable contaminated land issues. Therefore, before any development can take place the council will need to be satisfied that thorough investigation of the site has taken place and an appropriate scheme for remediation of the site is in place to deal with the historic land contamination.",2017-12-18 00:00:00,2018-12-12
http://opendatacommunities.org/doc/unitary-authority/portsmouth,Portsmouth City Council,15,,NORTH END KWIKSAVE,https://www.portsmouth.gov.uk/ext/development-and-planning/planning/brownfield-land-register,ETRS89,-1.0785,50.8174,0.17,not owned by a public authority,yes,Not permissioned,,,,,10,"Vacant retail unit, being promoted for residential development",,,,,,,,2017-12-18 00:00:00,2018-12-12
http://opendatacommunities.org/doc/unitary-authority/portsmouth,Portsmouth City Council,16,,108 - 112  ELM GROVE,https://www.portsmouth.gov.uk/ext/development-and-planning/planning/brownfield-land-register,ETRS89,-1.085,50.7894,0.04,not owned by a public authority,yes,Permissioned,Full planning permission,2015-05-01,http://publicaccess.portsmouth.gov.uk/online-applications/applicationDetails.do?activeTab=documents&keyVal=NKXUNKMOIS300,,15,Construction of 3-storey building to form a 17 study bedroom halls of residence for student use (Class C1) and 2 shops on ground floor (Class A1) with associated cycle and refuse stores,,,,,,,,2017-12-18 00:00:00,2018-12-12
http://opendatacommunities.org/doc/unitary-authority/portsmouth,Portsmouth City Council,17,,251 - 253  NEW ROAD (GOSPORT METAL TREATMENT),https://www.portsmouth.gov.uk/ext/development-and-planning/planning/brownfield-land-register,ETRS89,-1.0672,50.8093,0.06,not owned by a public authority,yes,Permissioned,Full planning permission,2017-02-01,http://publicaccess.portsmouth.gov.uk/online-applications/applicationDetails.do?activeTab=documents&keyVal=OGN2Y3MOHQM00,,8,Construction of a terrace of nine 2 and 2.5-storey dwellinghouse,,,,,,,,2017-12-18 00:00:00,2018-12-12
http://opendatacommunities.org/doc/unitary-authority/portsmouth,Portsmouth City Council,18,,WIGHTLINK CAR PARK,https://www.portsmouth.gov.uk/ext/development-and-planning/planning/brownfield-land-register,ETRS89,-1.1042,50.7933,0.35,not owned by a public authority,yes,Not permissioned,,,,,60,"Existing car park site, identified as suitable for residential development",,,,,,,"Promoted through SHLAA call for sites. The site has considerable contaminated land issues. Therefore, before any development can take place the council will need to be satisfied that thorough investigation of the site has taken place and an appropriate scheme for remediation of the site is in place to deal with the historic land contamination.",2017-12-18 00:00:00,2018-12-12
http://opendatacommunities.org/doc/unitary-authority/portsmouth,Portsmouth City Council,19,,PORTSMOUTH MAIL CENTRE,https://www.portsmouth.gov.uk/ext/development-and-planning/planning/brownfield-land-register,ETRS89,-1.0884,50.7992,0.5,not owned by a public authority,yes,Not permissioned,,,http://publicaccess.portsmouth.gov.uk/online-applications/applicationDetails.do?activeTab=documents&keyVal=P5VYDIMO0F800,,150,Vacant site with potential for mixed use development including residential,,,,,,,Promoted through SHLAA call for sites,2017-12-18 00:00:00,2018-12-12
http://opendatacommunities.org/doc/unitary-authority/portsmouth,Portsmouth City Council,20,,BRUNEL HOUSE,https://www.portsmouth.gov.uk/ext/development-and-planning/planning/brownfield-land-register,ETRS89,-1.1051,50.7974,0.27,not owned by a public authority,yes,Permissioned,Other,2017-09-20,http://publicaccess.portsmouth.gov.uk/online-applications/applicationDetails.do?activeTab=documents&keyVal=OT2TUNMO02T00,,150,Prior approval for change of use from office (Class B1) to form 153 residential dwellings (Class C3),,,,,,,,2017-12-18 00:00:00,2018-12-12
http://opendatacommunities.org/doc/unitary-authority/portsmouth,Portsmouth City Council,21,,EAST LODGE,https://www.portsmouth.gov.uk/ext/development-and-planning/planning/brownfield-land-register,ETRS89,-1.0258,50.8462,1.18,owned by a public authority,yes,Permissioned,Full planning permission,2013-12-05,http://publicaccess.portsmouth.gov.uk/online-applications/applicationDetails.do?activeTab=documents&keyVal=MUIJE3MO5G000,,50,Construction of 2-storey building to form 72 bed residential care home and car parking,,,,,,,,2017-12-18 00:00:00,2018-12-12
http://opendatacommunities.org/doc/unitary-authority/portsmouth,Portsmouth City Council,22,,THE NEWS CENTRE,https://www.portsmouth.gov.uk/ext/development-and-planning/planning/brownfield-land-register,ETRS89,-1.0692,50.8338,2.54,not owned by a public authority,yes,Not permissioned,,,,,100,Part of the site still in use as printing press and distribution area. Former offices potential for residential redevelopment.,,,,,,,,2017-12-18 00:00:00,2018-12-12
http://opendatacommunities.org/doc/unitary-authority/portsmouth,Portsmouth City Council,23,,ST JAMES HOSPITAL,https://www.portsmouth.gov.uk/ext/development-and-planning/planning/brownfield-land-register,ETRS89,-1.0457,50.7962,33.13,mixed ownership,yes,Not permissioned,,,,,444,"Identified as potential for residential development, possible mixed use.",,,,,,,Promoted through SHLAA call for sites,2017-12-18 00:00:00,2018-12-12
http://opendatacommunities.org/doc/unitary-authority/portsmouth,Portsmouth City Council,24,,UNITY HALL AND DEAF CENTRE,https://www.portsmouth.gov.uk/ext/development-and-planning/planning/brownfield-land-register,ETRS89,-1.0802,50.8001,0.2,not owned by a public authority,yes,Permissioned,Outline planning permission,2017-11-25,http://publicaccess.portsmouth.gov.uk/online-applications/applicationDetails.do?activeTab=documents&keyVal=OQTMEKMOMII00,,70,"Construction of up to 10-storey building to form halls of residence comprising 96 study bedrooms (Class C1) and communal facilities, cycle and refuse stores and car parking",,,,,,,,2017-12-18 00:00:00,2018-12-12
http://opendatacommunities.org/doc/unitary-authority/portsmouth,Portsmouth City Council,25,,75 LONDON ROAD,https://www.portsmouth.gov.uk/ext/development-and-planning/planning/brownfield-land-register,ETRS89,-1.0799,50.8154,0.31,not owned by a public authority,yes,Permissioned,Full planning permission,2018-09-14,http://publicaccess.portsmouth.gov.uk/online-applications/applicationDetails.do?activeTab=documents&keyVal=P6O0TLMOMGO00,,6,Conversion of second floor from Dance Studio (Class D2) to form six dwellings (Class C3) with associated external alterations,,,,,,,,2018-12-12 00:00:00,2018-12-12
http://opendatacommunities.org/doc/unitary-authority/portsmouth,Portsmouth City Council,26,,"COSHAM DELIVERY OFFICE, NORTHERN ROAD",https://www.portsmouth.gov.uk/ext/development-and-planning/planning/brownfield-land-register,ETRS89,�-1.069617,50.8447,0.09,not owned by a public authority,yes,Permissioned,Full planning permission,2018-08-24,http://publicaccess.portsmouth.gov.uk/online-applications/applicationDetails.do?activeTab=documents&keyVal=P94UULMOG0000,,6,Change of use to first and second floors from offices (Class B1) to form 6 flats (Class C3),,,,,,,,2018-12-12 00:00:00,2018-12-12
http://opendatacommunities.org/doc/unitary-authority/portsmouth,Portsmouth City Council,27,,ROYAL MARINE MUSEUM,https://www.portsmouth.gov.uk/ext/development-and-planning/planning/brownfield-land-register,ETRS89,-1.0502,�50.875543,0.16,not owned by a public authority,yes,Not permissioned,,,,,20,,,,,,,,,2018-12-12 00:00:00,2018-12-12
http://opendatacommunities.org/doc/unitary-authority/portsmouth,Portsmouth City Council,28,,"THE INVINCIBLE, WICKHAM STREET",https://www.portsmouth.gov.uk/ext/development-and-planning/planning/brownfield-land-register,ETRS89,-1.1062,50.7991,0.03,not owned by a public authority,yes,Pending decision,,,http://publicaccess.portsmouth.gov.uk/online-applications/applicationDetails.do?activeTab=documents&keyVal=P8TM2KMOFUE00,,40,"Outline application for construction of a twelve storey building (3,317sqm GEA) to provide 76no. 'co-living' bedspaces�",,,,,,,,2018-12-12 00:00:00,2018-12-12
http://opendatacommunities.org/doc/unitary-authority/portsmouth,Portsmouth City Council,29,,"POLICE STATION, KINGSTON CRESCENT",https://www.portsmouth.gov.uk/ext/development-and-planning/planning/brownfield-land-register,ETRS89,-1.0823,50.8137,0.12,owned by a public authority,yes,Not permissioned,,,,,40,,,,,,,,,2018-12-12 00:00:00,2018-12-12
http://opendatacommunities.org/doc/unitary-authority/portsmouth,Portsmouth City Council,30,,COSHAM POLICE STATION/ HEALTH CENTRE,https://www.portsmouth.gov.uk/ext/development-and-planning/planning/brownfield-land-register,ETRS89,�-1.068550,50.8448,0.28,owned by a public authority,yes,Not permissioned,,,http://publicaccess.portsmouth.gov.uk/online-applications/applicationDetails.do?keyVal=ZZZWCDMOXD000&activeTab=summary,,50,,,,,,,,,2018-12-12 00:00:00,2018-12-12
http://opendatacommunities.org/doc/unitary-authority/portsmouth,Portsmouth City Council,31,,PCMI SIGNS,https://www.portsmouth.gov.uk/ext/development-and-planning/planning/brownfield-land-register,ETRS89,-1.0688,50.8474,0.74,owned by a public authority,yes,Not permissioned,,,,,50,,,,,,,,,2018-12-12 00:00:00,2018-12-12
http://opendatacommunities.org/doc/unitary-authority/portsmouth,Portsmouth City Council,32,,CITY RECORDS OFFICE,https://www.portsmouth.gov.uk/ext/development-and-planning/planning/brownfield-land-register,ETRS89,-1.0951,50.8813,0.39,owned by a public authority,yes,Not permissioned,,,,,91,,,,,,,,,2018-12-12 00:00:00,2018-12-12
http://opendatacommunities.org/doc/unitary-authority/portsmouth,Portsmouth City Council,33,,MIDDLE STREET,https://www.portsmouth.gov.uk/ext/development-and-planning/planning/brownfield-land-register,ETRS89,-1.089,50.8619,0.03,mixed ownership,yes,Pending decision,,,http://publicaccess.portsmouth.gov.uk/online-applications/applicationDetails.do?activeTab=documents&keyVal=PIUYABMOKFB00,,20,Outline application for the demolition of existing buildings and the construction of student residential accommodation (21 units) in a four storey building (Scale and access to be considered).,,,,,,,,2018-12-12 00:00:00,2018-12-12
http://opendatacommunities.org/doc/unitary-authority/portsmouth,Portsmouth City Council,34,,WINGFIELD HOUSE,https://www.portsmouth.gov.uk/ext/development-and-planning/planning/brownfield-land-register,ETRS89,-1.0867,�50.804279,0.28,not owned by a public authority,yes,Pending decision,,,http://publicaccess.portsmouth.gov.uk/online-applications/applicationDetails.do?activeTab=documents&keyVal=PHXQBUMOK0000,,200,Change of use of building from offices (Class B1(a)) to a Student Hall of Residence (Class C1) comprising 309 study studios,,,,,,,,2018-12-12 00:00:00,2018-12-12
http://opendatacommunities.org/doc/unitary-authority/portsmouth,Portsmouth City Council,35,,REAR OF 40 HIGH STREET,https://www.portsmouth.gov.uk/ext/development-and-planning/planning/brownfield-land-register,ETRS89,�-1.067309,50.845,0.02,not owned by a public authority,yes,Permissioned,Full planning permission,2018-03-06,http://publicaccess.portsmouth.gov.uk/online-applications/applicationDetails.do?activeTab=documents&keyVal=OHEWTFMOI2V00,,5,CONSTRUCTION OF A 3 STOREY BUILDING TO FORM 5 DWELLINGS (FOLLOWING DEMOLITION OF EXISTING REAR PART OF BUILDING),,,,,,,,2018-12-12 00:00:00,2018-12-12
http://opendatacommunities.org/doc/unitary-authority/portsmouth,Portsmouth City Council,36,,208-220 COMMERCIAL ROAD & 7-13 CRASSWELL STREET,https://www.portsmouth.gov.uk/ext/development-and-planning/planning/brownfield-land-register,ETRS89,-1.0886,50.8015,0.09,not owned by a public authority,yes,Not permissioned,,,,,20,Construction of minimum of 20 residential dwellings with retail use at ground and first floor,,,,,,,,208-12-12,2018-12-12
http://opendatacommunities.org/doc/unitary-authority/portsmouth,Portsmouth City Council,37,,"PORTLAND HOTEL, 38 KENT ROAD",https://www.portsmouth.gov.uk/ext/development-and-planning/planning/brownfield-land-register,ETRS89,-1.0876,50.8765,0.13,not owned by a public authority,yes,Permissioned,Full planning permission,2017-05-18,http://publicaccess.portsmouth.gov.uk/online-applications/applicationDetails.do?activeTab=documents&keyVal=OE1RD8MOGI500,,12,CONVERSION OF EXISTING BUILDING TO 12 FLATS,,,,,,,,2018-12-12 00:00:00,2018-12-12
http://opendatacommunities.org/doc/unitary-authority/portsmouth,Portsmouth City Council,38,,REAR OF ODEON CINEMA 92/96 LONDON ROAD,https://www.portsmouth.gov.uk/ext/development-and-planning/planning/brownfield-land-register,ETRS89,�-1.078831,50.8161,0.27,not owned by a public authority,yes,Permissioned,Outline planning permission,2018-03-22,http://publicaccess.portsmouth.gov.uk/online-applications/applicationDetails.do?activeTab=documents&keyVal=OIJDPZMOIMK00,,15,"15 DWELLINGS COMPRISING 8 THREE-STOREY HOUSES IN 2 TERRACES, 6 FLATS IN PART 2/3-STOREY BUILDING & 1 MAISONETTE",,,,,,,,2018-12-12 00:00:00,2018-12-12
http://opendatacommunities.org/doc/unitary-authority/portsmouth,Portsmouth City Council,39,,GARAGES ADJACENT TO 1A ST CHADS AVENUE,https://www.portsmouth.gov.uk/ext/development-and-planning/planning/brownfield-land-register,ETRS89,-1.0746,50.8223,0.06,not owned by a public authority,yes,Pending decision,,,http://publicaccess.portsmouth.gov.uk/online-applications/applicationDetails.do?activeTab=documents&keyVal=NXCHQGMOGPA00,,6,"Construction of a 3.5-storey block of seven flats with associated parking, landscaping, cycle and refuse stores following demolition of existing garage blocks",,,,,,,,2017-12-18 00:00:00,2018-12-12
http://opendatacommunities.org/doc/unitary-authority/portsmouth,Portsmouth City Council,40,,FORMER AMBULANCE STATION LAND ADJACENT TO THE HARBOUR CAR PARK,https://www.portsmouth.gov.uk/ext/development-and-planning/planning/brownfield-land-register,ETRS89,-1.1053,50.7979,0.04,mixed ownership,yes,Permissioned,Full planning permission,2017-12-18,http://publicaccess.portsmouth.gov.uk/online-applications/applicationDetails.do?activeTab=documents&keyVal=OMWVN9MOKOM00,,11,CONSTRUCTION OF 4 STOREY BUILDING COMPRISING 11 NO. 1 BED APARTMENTS (FOLLOWING DEMOLTION OF EXISTING BUILDING),,,,,,,,2018-12-12 00:00:00,2018-12-12
http://opendatacommunities.org/doc/unitary-authority/portsmouth,Portsmouth City Council,41,,BRUNEL HOUSE 42 THE HARD,https://www.portsmouth.gov.uk/ext/development-and-planning/planning/brownfield-land-register,ETRS89,-1.1051,�50.797380,0.22,not owned by a public authority,yes,Permissioned,Full planning permission,2017-09-20,http://publicaccess.portsmouth.gov.uk/online-applications/applicationDetails.do?activeTab=documents&keyVal=OT2TUNMO02T00,,153,APPLICATION FOR PRIOR APPROVAL RELATING TO THE CHANGE OF USE FROM OFFICES (CLASS B1A) TO 153 RESIDENTIAL UNITS,,,,,,,,2018-12-12 00:00:00,2018-12-12
http://opendatacommunities.org/doc/unitary-authority/portsmouth,Portsmouth City Council,42,,ENTERPRISE HOUSE ISAMBARD BRUNEL ROAD,https://www.portsmouth.gov.uk/ext/development-and-planning/planning/brownfield-land-register,ETRS89,-1.0903,50.7979,0.19,not owned by a public authority,yes,Permissioned,Full planning permission,2017-12-18,http://publicaccess.portsmouth.gov.uk/online-applications/applicationDetails.do?activeTab=documents&keyVal=OJVX08MOJ8500,,30,APPLICATION FOR PRIOR APPROVAL RELATING TO THE CHANGE OF USE FROM OFFICE USE (CLASS B1) OF PART OF FLOORS TO FLATS,,,,,,,,2018-12-12 00:00:00,2018-12-12
http://opendatacommunities.org/doc/unitary-authority/portsmouth,Portsmouth City Council,43,,PUBLIC HOUSE 127 ST MARYS ROAD,https://www.portsmouth.gov.uk/ext/development-and-planning/planning/brownfield-land-register,ETRS89,-1.0714,50.8033,0.05,not owned by a public authority,yes,Permissioned,Full planning permission,2017-09-28,http://publicaccess.portsmouth.gov.uk/online-applications/applicationDetails.do?activeTab=documents&keyVal=OQD5NJMOMA400,,6,CHANGE OF USE OF PUBLIC HOUSE (CLASS A4) TO 6 DWELLINGS,,,,,,,,2018-12-12 00:00:00,2018-12-12
http://opendatacommunities.org/doc/unitary-authority/portsmouth,Portsmouth City Council,44,,GARAGE AND WORKSHOPS TRAFALGAR PLACE,https://www.portsmouth.gov.uk/ext/development-and-planning/planning/brownfield-land-register,ETRS89,-1.0767,50.8015,0.04,not owned by a public authority,yes,Permissioned,Full planning permission,2016-11-03,http://publicaccess.portsmouth.gov.uk/online-applications/applicationDetails.do?activeTab=documents&keyVal=O6RGZ1MOKVF00,,6,CONS OF BUILDING WITH UNDERCROFT TO FORM 7 SELF CONTAINED FLATS AFTER DEMO OF EXISTING BUIDING,,,,,,,,2018-12-12 00:00:00,2018-12-12
http://opendatacommunities.org/doc/unitary-authority/portsmouth,Portsmouth City Council,45,,32 WESTERN PARADE,https://www.portsmouth.gov.uk/ext/development-and-planning/planning/brownfield-land-register,ETRS89,-1.0926,50.8756,0.04,not owned by a public authority,yes,Permissioned,Full planning permission,2017-05-26,http://publicaccess.portsmouth.gov.uk/online-applications/applicationDetails.do?activeTab=documents&keyVal=ON3ZTJMOKRH00,,7,CHANGE OF USE FROM STUDENT HALLS OF RESIDENCE TO FORM 7 FLATS,,,,,,,,2018-12-12 00:00:00,2018-12-12
http://opendatacommunities.org/doc/unitary-authority/portsmouth,Portsmouth City Council,46,,"FLOORS 1,2 &3, 101 COMMERCIAL ROAD",https://www.portsmouth.gov.uk/ext/development-and-planning/planning/brownfield-land-register,ETRS89,-1.0912,50.7994,0.01,not owned by a public authority,yes,Permissioned,Full planning permission,2017-03-23,http://publicaccess.portsmouth.gov.uk/online-applications/applicationDetails.do?activeTab=documents&keyVal=OKFND9MO0DR00,,9,"APP FOR PRIOR APPROVAL RELATING TO THE CHANGE OF USE FROM B1(A) OFFICE USE OF FLOOR 1, 2 & 3 TO 9 C3 FLATS",,,,,,,,2018-12-12 00:00:00,2018-12-12
http://opendatacommunities.org/doc/unitary-authority/portsmouth,Portsmouth City Council,47,,11 OSBORNE ROAD,https://www.portsmouth.gov.uk/ext/development-and-planning/planning/brownfield-land-register,ETRS89,-1.0916,50.8754,0.03,not owned by a public authority,yes,Permissioned,Full planning permission,2017-09-08,http://publicaccess.portsmouth.gov.uk/online-applications/applicationDetails.do?activeTab=documents&keyVal=ORNOTDMOMYO00,,5,CONVERSION OF EXISTING 5 DWELLINGS (CLASS C4) TO FORM 10 DWELLINGS (CLASS C3),,,,,,,,2018-12-12 00:00:00,2018-12-12
http://opendatacommunities.org/doc/unitary-authority/portsmouth,Portsmouth City Council,48,,235-249 GOLDSMITH AVENUE,https://www.portsmouth.gov.uk/ext/development-and-planning/planning/brownfield-land-register,ETRS89,-1.0726,50.8857,0.33,not owned by a public authority,yes,Permissioned,Full planning permission,2016-04-13,http://publicaccess.portsmouth.gov.uk/online-applications/applicationDetails.do?activeTab=documents&keyVal=NZT70ZMOHUG00,,70,CONSTRUCTION OF 2 BLOCKS TO FORM 70 FLATS AFTER DEMOLITION OF EXISTING BUILDINGS,,,,,,,,2018-12-12 00:00:00,2018-12-12
http://opendatacommunities.org/doc/unitary-authority/portsmouth,Portsmouth City Council,49,,158-160 LONDON ROAD,https://www.portsmouth.gov.uk/ext/development-and-planning/planning/brownfield-land-register,ETRS89,-1.0784,�50.818431,0.07,not owned by a public authority,yes,Permissioned,Full planning permission,2017-11-08,http://publicaccess.portsmouth.gov.uk/online-applications/applicationDetails.do?activeTab=documents&keyVal=OV8UB4MO0F800,,6,"CONVERSION OF PART GROUND FLOOR, 1ST & 2ND FLOORS TO FORM 6 FLATS. RESUBMISSION OF 17/00365/FUL",,,,,,,,2018-12-12 00:00:00,2018-12-12
http://opendatacommunities.org/doc/unitary-authority/portsmouth,Portsmouth City Council,50,,FORMER SOUTHSEA COMMMUNITY CENTRE KING STREET,https://www.portsmouth.gov.uk/ext/development-and-planning/planning/brownfield-land-register,ETRS89,-1.092,�50.882530,0.08,owned by a public authority,yes,Permissioned,Full planning permission,2015-07-28,http://publicaccess.portsmouth.gov.uk/online-applications/applicationDetails.do?activeTab=documents&keyVal=NNIPLTMOJYO00,,23,CONST OF 5 STOREY BUILDING TO FORM 23 FLATS,,,,,,,,2018-12-12 00:00:00,2018-12-12
http://opendatacommunities.org/doc/unitary-authority/portsmouth,Portsmouth City Council,51,,DIANE RUSSEL COURT 81 KINGSTON ROAD,https://www.portsmouth.gov.uk/ext/development-and-planning/planning/brownfield-land-register,ETRS89,�-1.077679,50.809,0.05,owned by a public authority,yes,Permissioned,Full planning permission,2016-12-14,http://publicaccess.portsmouth.gov.uk/online-applications/applicationDetails.do?activeTab=documents&keyVal=OFJMG2MOH7S00,,9,CONSTRUCTION OF MANSARD ROOF TO FORM 3 FLATS,,,,,,,,2018-12-12 00:00:00,2018-12-12
http://opendatacommunities.org/doc/unitary-authority/portsmouth,Portsmouth City Council,52,,229-231 FIRST AND SECOND FLOOR COMMERCIAL ROAD,https://www.portsmouth.gov.uk/ext/development-and-planning/planning/brownfield-land-register,ETRS89,�-1.088203,50.8027,0.03,not owned by a public authority,yes,Permissioned,Full planning permission,2016-06-24,http://publicaccess.portsmouth.gov.uk/online-applications/applicationDetails.do?activeTab=documents&keyVal=O59RQHMOK6L00,,6,CONVERSION TO FORM 4 FLATS & 2 MAISONETTES WITH EXTERNAL ALTERATIONS,,,,,,,,2018-12-12 00:00:00,2018-12-12
http://opendatacommunities.org/doc/unitary-authority/portsmouth,Portsmouth City Council,53,,UNITS 8-10 PORTSMOUTH ROAD,https://www.portsmouth.gov.uk/ext/development-and-planning/planning/brownfield-land-register,ETRS89,-1.0686,50.8416,0.04,not owned by a public authority,yes,Permissioned,Full planning permission,2018-03-08,http://publicaccess.portsmouth.gov.uk/online-applications/applicationDetails.do?activeTab=documents&keyVal=OT1DKNMOFXA00,,6,EXTERNAL ALTERATIONS & CONVERSION OF GROUND FLOOR TO FORM 6 FLATS,,,,,,,,2018-12-12 00:00:00,2018-12-12
http://opendatacommunities.org/doc/unitary-authority/portsmouth,Portsmouth City Council,54,,FORMER KINGSTON PRISON MILTON ROAD,https://www.portsmouth.gov.uk/ext/development-and-planning/planning/brownfield-land-register,ETRS89,-1.0655,�50.803329,2.66,not owned by a public authority,yes,Not permissioned,,,http://publicaccess.portsmouth.gov.uk/online-applications/applicationDetails.do?activeTab=documents&keyVal=PHVPZ9MOJZ200,,230,REDEVELOPMENT/CONVERSION OF FORMER PRISON TO 271 DWELLINGS AND COMMERCIAL UNIT (A1/A3),,,,,,,,2018-12-12 00:00:00,2018-12-12
http://opendatacommunities.org/doc/unitary-authority/portsmouth,Portsmouth City Council,55,,158 AND LAND AT REAR OF 154-172 SOUTHAMPTON ROAD,https://www.portsmouth.gov.uk/ext/development-and-planning/planning/brownfield-land-register,ETRS89,�-1.107660,50.8474,0.81,not owned by a public authority,yes,Permissioned,Full planning permission,2017-01-31,http://publicaccess.portsmouth.gov.uk/online-applications/applicationDetails.do?activeTab=documents&keyVal=OAKH5GMO0DS00,,29,CONSTRUCTION OF 30 DWELLINGS,,,,,,,,2018-12-12 00:00:00,2018-12-12
http://opendatacommunities.org/doc/unitary-authority/portsmouth,Portsmouth City Council,56,,8 QUEENS ROAD,https://www.portsmouth.gov.uk/ext/development-and-planning/planning/brownfield-land-register,ETRS89,-1.0788,50.811,0.04,not owned by a public authority,yes,Permissioned,Full planning permission,2017-12-14,http://publicaccess.portsmouth.gov.uk/online-applications/applicationDetails.do?activeTab=documents&keyVal=OUSI7YMOGT000,,8,CONVERSION OF EXISTING BUILDING WITH 1ST FLOOR EXTENSION & ERECTION OF 2ND STOREY TO FORM 6 NO. 1-BED & 2 NO. 2-BED FLATS,,,,,,,,2018-12-12 00:00:00,2018-12-12
http://opendatacommunities.org/doc/unitary-authority/portsmouth,Portsmouth City Council,57,,106 & 108 QUEENS ROAD,https://www.portsmouth.gov.uk/ext/development-and-planning/planning/brownfield-land-register,ETRS89,�-1.073150,50.8112,0.05,not owned by a public authority,yes,Permissioned,Full planning permission,2015-08-21,http://publicaccess.portsmouth.gov.uk/online-applications/applicationDetails.do?activeTab=documents&keyVal=NNOI4EMOK1O00,,7,CONST OF 2/3 STOREY BUILD TO FORM 7 FLATS AFTER DEMO OF EXISTING BUILDING,,,,,,,,2018-12-12 00:00:00,2018-12-12
http://opendatacommunities.org/doc/unitary-authority/portsmouth,Portsmouth City Council,58,,251-253 NEW ROAD,https://www.portsmouth.gov.uk/ext/development-and-planning/planning/brownfield-land-register,ETRS89,-1.0673,50.8093,0.06,not owned by a public authority,yes,Permissioned,Full planning permission,2017-02-01,http://publicaccess.portsmouth.gov.uk/online-applications/applicationDetails.do?activeTab=documents&keyVal=OGN2Y3MOHQM00,,9,APPLICATION FOR APPROVAL OF RESERVED MATTERS PURSUANT TO 12/00580/OUT FOR THE CONSTRUCTION OF A TERRACE OF 9 NO. DWELLINGS,,,,,,,,2018-12-12 00:00:00,2018-12-12
http://opendatacommunities.org/doc/unitary-authority/portsmouth,Portsmouth City Council,59,,170 MILTON ROAD,https://www.portsmouth.gov.uk/ext/development-and-planning/planning/brownfield-land-register,ETRS89,-1.085,50.8813,0.08,not owned by a public authority,yes,Permissioned,Full planning permission,2018-06-07,http://publicaccess.portsmouth.gov.uk/online-applications/applicationDetails.do?activeTab=documents&keyVal=OS0CQDMON5300,,9,"Construction of 3-storey building to form 9 flats with associated parking, refuse/cycle stores and landscaping, following demolition of existing buildings.",,,,,,,,2018-12-12 00:00:00,2018-12-12
http://opendatacommunities.org/doc/unitary-authority/portsmouth,Portsmouth City Council,60,,"LAND ADJ TO CATHERINE HOUSE, STANHOPE ROAD",https://www.portsmouth.gov.uk/ext/development-and-planning/planning/brownfield-land-register,ETRS89,-1.0926,�50.799128,0.35,not owned by a public authority,yes,Pending decision,,,http://publicaccess.portsmouth.gov.uk/online-applications/applicationDetails.do?activeTab=documents&keyVal=OXRFRUMOI7400,,147,"Mixed-use development comprising the construction of: 16-storey building to provide 147 dwellings and associated facilities (Class C3); 19-storey building to provide 222-bed hotel (Class C1), offices (Class B1a), events space (Class B1a/Class D2), 'sky bar' (Class A3/A4), restaurant/bar (Class A3/A4), and ground floor caf�/restaurants (Class A3) totalling 16,344sqm (GEA) of non-residential floorspace; basement parking and plant areas with access from Stanhope Road; associated facilities and landscaping works to Commercial Road, Stanhope Road and entrances to Victoria Park.",,,,,,,,2018-12-12 00:00:00,2018-12-12
http://opendatacommunities.org/doc/unitary-authority/portsmouth,Portsmouth City Council,61,,46A LEALAND ROAD,https://www.portsmouth.gov.uk/ext/development-and-planning/planning/brownfield-land-register,ETRS89,�-1.041890,50.8434,0.14,not owned by a public authority,yes,Permissioned,Full planning permission,2018-05-30,http://publicaccess.portsmouth.gov.uk/online-applications/applicationDetails.do?activeTab=documents&keyVal=P1DNL2MOJXL00,,7,construction of 6 semi-detached houses and a single coach house unit to include vehicle parking and cycle/refuse stores with access from Lealand Road (following demolition of existing dwelling) (Amended scheme to 15/01671/FUL),,,,,,,,2018-12-12 00:00:00,2018-12-12
http://opendatacommunities.org/doc/unitary-authority/portsmouth,Portsmouth City Council,62,,"WEST COURT, HIGHLAND ROAD",https://www.portsmouth.gov.uk/ext/development-and-planning/planning/brownfield-land-register,ETRS89,-1.0853,50.8733,0.08,not owned by a public authority,yes,Permissioned,Full planning permission,2018-08-24,http://publicaccess.portsmouth.gov.uk/online-applications/applicationDetails.do?activeTab=documents&keyVal=P96V9TMOG1E00,,6,Construction of three-storey rear extension and additional storey to existing roof to form 6 additional flats,,,,,,,,2018-12-12 00:00:00,2018-12-12
http://opendatacommunities.org/doc/unitary-authority/portsmouth,Portsmouth City Council,63,,SOUTHSEA POLICE STATION,https://www.portsmouth.gov.uk/ext/development-and-planning/planning/brownfield-land-register,ETRS89,-1.0852,50.7918,0.28,owned by a public authority,yes,Permissioned,Full planning permission,2018-11-23,http://publicaccess.portsmouth.gov.uk/online-applications/applicationDetails.do?activeTab=documents&keyVal=PD38H5MOHS900,,18,Conversion of former Police Station (Sui Generis) to form 18 self-contained dwellings (Class C3) with associated cycle and refuse storage; and external alterations to include installation of windows to north elevation (ground floor).,,,,,,,,2018-12-12 00:00:00,2018-12-12
http://opendatacommunities.org/doc/unitary-authority/portsmouth,Portsmouth City Council,64,,"GARAGES, SERPENTINE ROAD",https://www.portsmouth.gov.uk/ext/development-and-planning/planning/brownfield-land-register,ETRS89,-1.0892,50.7758,0.09,not owned by a public authority,yes,Permissioned,Full planning permission,2016-10-17,http://publicaccess.portsmouth.gov.uk/online-applications/applicationDetails.do?activeTab=documents&keyVal=O5ZDE2MOKI600,,7,"Construction of a three-storey building to form 7no. flats with associated parking, landscaping and provision of cycle/refuse stores after demolition of existing garages",,,,,,,,2018-12-12 00:00:00,2018-12-12
http://opendatacommunities.org/doc/unitary-authority/portsmouth,Portsmouth City Council,65,,LAND R/O 244-248 SOUTHAMPTON ROAD,https://www.portsmouth.gov.uk/ext/development-and-planning/planning/brownfield-land-register,ETRS89,�-1.116438,50.8474,0.21,not owned by a public authority,yes,Permissioned,Full planning permission,2016-08-17,http://publicaccess.portsmouth.gov.uk/online-applications/applicationDetails.do?activeTab=documents&keyVal=O6R014MO0DK00,,10,Construction of 10 semi-detached and terraced two and two-and-a-half storey dwellings with associated parking and landscaping (accessed from Neelands Grove),,,,,,,,2018-12-12 00:00:00,2018-12-12
